{"type":"FeatureCollection","features":[{"type":"Feature","id":1,"geometry":{"type":"Polygon","coordinates":[[[119.09419946600008,26.550971292000042],[119.09407340900009,26.550969584000029],[119.09394771900008,26.550960759000077],[119.09382289400003,26.550944854000079],[119.09369942500007,26.550921932000051],[119.09357780000005,26.550892082000075],[119.09345850000011,26.550855422000041],[119.09334199400007,26.550812098000051],[119.09322874300005,26.550762280000072],[119.09311919400011,26.550706164000076],[119.0930137790001,26.550643973000035],[119.09291291400007,26.550575952000031],[119.09281699700011,26.550502368000025],[119.0927264070001,26.550423514000045],[119.09264150200011,26.550339699000062],[119.09256261500002,26.550251254000045],[119.09249005900006,26.550158529000043],[119.09242412100002,26.550061890000052],[119.09236505900003,26.549961718000077],[119.0923131080001,26.549858408000034],[119.09226847200011,26.549752368000043],[119.09223132700004,26.549644017000048],[119.09220182000001,26.549533782000026],[119.09218006800006,26.549422098000036],[119.09216615700007,26.549309406000077],[119.09216014000003,26.549196151000046],[119.09216204200004,26.549082779000059],[119.09217185600005,26.548969739000029],[119.09218954200003,26.548857476000023],[119.09221503100002,26.548746433000076],[119.09224822200008,26.548637049000035],[119.09228898400011,26.548529755000061],[119.0923371560001,26.548424974000056],[119.09239254900001,26.548323121000067],[119.09245494300001,26.548224597000058],[119.09252409200008,26.548129791000065],[119.09259972400002,26.548039077000055],[119.09268154000006,26.547952813000052],[119.09276921600008,26.547871339000039],[119.0928624070001,26.54779497800007],[119.09296074600002,26.54772403000004],[119.09306384400008,26.547658775000059],[119.09317129300007,26.547599472000059],[119.09328267100011,26.54754635300003],[119.09339753800009,26.547499629000072],[119.09351543900004,26.547459484000058],[119.09363591100009,26.547426076000079],[119.09375847700005,26.547399538000036],[119.09388265500002,26.547379973000034],[119.09400795300007,26.547367460000032],[119.0941338770001,26.547362047000036],[119.09425993100001,26.547363756000038],[119.09438561600007,26.547372580000058],[119.09451043800004,26.547388485000056],[119.09463390300004,26.547411407000027],[119.09475552400011,26.54744125700006],[119.09487482100008,26.547477915000059],[119.09499132400003,26.547521238000058],[119.09510457200008,26.547571055000049],[119.09521411900005,26.547627169000066],[119.09531953200008,26.54768935900006],[119.09542039600001,26.547757379000075],[119.0955163110001,26.547830960000056],[119.09560690100011,26.547909814000036],[119.09569180700009,26.547993627000039],[119.09577069400007,26.548082069000031],[119.09584325100002,26.548174792000054],[119.09590919100003,26.548271430000057],[119.09596825500012,26.548371601000042],[119.09602020900002,26.548474909000049],[119.09606484700009,26.548580948000051],[119.09610199500003,26.548689298000056],[119.09613150500002,26.548799532000032],[119.09615326100004,26.548911215000032],[119.09616717600011,26.549023906000059],[119.0961731970001,26.549137161000033],[119.09617129900005,26.54925053200003],[119.09616148900011,26.549363573000051],[119.09614380700009,26.549475836000056],[119.09611832200005,26.54958687900006],[119.09608513400008,26.549696264000033],[119.09604437500002,26.549803559000054],[119.09599620600011,26.549908341000048],[119.09594081600005,26.550010195000027],[119.09587842400003,26.550108721000072],[119.09580927600007,26.550203528000054],[119.0957336460001,26.550294244000042],[119.09565183100005,26.550380510000025],[119.09556415500003,26.550461985000027],[119.09547096400001,26.550538348000032],[119.0953726250001,26.55060929800004],[119.09526952600004,26.550674554000068],[119.09516207500008,26.550733859000047],[119.09505069500005,26.550786980000055],[119.0949358260001,26.550833705000059],[119.09481792200006,26.550873852000052],[119.09469744700004,26.550907260000031],[119.09457487700001,26.550933800000053],[119.09445069600008,26.550953365000055],[119.09432539400007,26.550965879000046],[119.09419946600008,26.550971292000042]]]},"properties":{"OBJECTID":1,"Bld_Cnt":35,"Vill_Name":"文山岗村","Haz_ID":0,"Buffer_m":200,"Haz_Name":"文山岗村部崩塌","Haz_Type":"崩塌","Haz_Level":"小型","Shape_Length":0.011981116505883009,"Shape_Area":1.137134530170995e-05}},{"type":"Feature","id":2,"geometry":{"type":"Polygon","coordinates":[[[119.08392142700006,26.482082432000027],[119.08379544500008,26.482080709000059],[119.08366983100007,26.482071871000073],[119.08354508100001,26.482055953000042],[119.08342168900003,26.482033017000049],[119.08330014000001,26.482003153000051],[119.08318091500007,26.48196648000004],[119.08306448400003,26.481923143000074],[119.08295130700003,26.481873312000062],[119.08284183000001,26.481817184000079],[119.08273648600004,26.481754980000062],[119.08263568900009,26.481686947000071],[119.08253983900011,26.481613352000068],[119.0824493130001,26.481534487000033],[119.08236446900003,26.481450662000043],[119.08228564100011,26.481362207000075],[119.08221314000002,26.481269474000044],[119.08214725300002,26.481172826000034],[119.08208824000008,26.48107264600003],[119.08203633300002,26.480969329000061],[119.08199173700007,26.480863283000076],[119.08195462900005,26.480754926000031],[119.08192515500002,26.480644686000062],[119.08190343000001,26.480532998000058],[119.08188954200011,26.480420303000074],[119.08188354400011,26.480307046000064],[119.08188546000008,26.480193673000031],[119.08189528200012,26.480080632000067],[119.08191297300004,26.479968369000062],[119.08193846100005,26.479857327000047],[119.08197164700005,26.479747945000042],[119.08201240000005,26.479640654000036],[119.08206055800008,26.479535877000046],[119.08211593100009,26.479434028000071],[119.08217830100011,26.479335510000055],[119.08224742200002,26.479240710000056],[119.08232302100009,26.47915000200004],[119.08240480000006,26.479063746000065],[119.08249243500006,26.478982281000071],[119.0825855810001,26.478905928000074],[119.08268387100009,26.478834990000053],[119.08278691600003,26.478769746000069],[119.08289431000003,26.478710453000076],[119.08300562900001,26.478657345000045],[119.08312043400008,26.478610633000073],[119.08323827100003,26.478570500000046],[119.0833586760001,26.478537104000054],[119.08348117300011,26.478510579000044],[119.08360528000003,26.478491027000075],[119.08373050500006,26.47847852700005],[119.08385635600007,26.478473128000076],[119.08398233500009,26.478474850000055],[119.08410794500003,26.47848368800004],[119.08423269000002,26.47849960700006],[119.08435607900003,26.478522542000064],[119.0844776240001,26.478552405000073],[119.08459684600007,26.478589077000038],[119.08471327400002,26.478632413000071],[119.08482644900005,26.478682243000037],[119.0849359230001,26.47873837000003],[119.08504126600008,26.478800572000068],[119.08514206100006,26.478868603000024],[119.08523791000005,26.478942196000048],[119.08532843600005,26.479021060000036],[119.08541328000001,26.479104884000037],[119.08549210900003,26.479193336000037],[119.08556461000001,26.479286068000079],[119.0856304990001,26.479382714000053],[119.08568951400002,26.479482893000068],[119.08574142400005,26.479586208000057],[119.08578602200009,26.479692253000053],[119.08582313300008,26.479800609000051],[119.08585261100006,26.479910848000031],[119.08587433900004,26.480022535000046],[119.08588823100001,26.480135229000041],[119.08589423300009,26.48024848600005],[119.08589232100007,26.480361859000027],[119.08588250200012,26.480474900000047],[119.08586481600003,26.480587163000052],[119.0858393310001,26.480698205000067],[119.08580614800007,26.480807588000062],[119.08576539900002,26.480914880000057],[119.08571724500007,26.481019658000037],[119.08566187400004,26.481121508000058],[119.08559950600011,26.481220028000052],[119.08553038700006,26.481314830000031],[119.0854547890001,26.481405538000047],[119.08537301100012,26.481491797000047],[119.08528537600012,26.48157326300003],[119.08519223000008,26.481649618000063],[119.08509394000009,26.481720558000063],[119.08499089300005,26.481785804000026],[119.08488349800007,26.481845099000054],[119.0847721770001,26.481898208000075],[119.08465737000006,26.481944922000025],[119.08453953000003,26.481985056000042],[119.0844191220001,26.482018452000034],[119.08429662100002,26.482044979000023],[119.08417251100002,26.482064531000049],[119.08404728200003,26.482077032000063],[119.08392142700006,26.482082432000027]]]},"properties":{"OBJECTID":2,"Bld_Cnt":33,"Vill_Name":"流源村","Haz_ID":1,"Buffer_m":200,"Haz_Name":"流源村部崩塌","Haz_Type":"崩塌","Haz_Level":"小型","Shape_Length":0.011977368854305065,"Shape_Area":1.1364777960523979e-05}},{"type":"Feature","id":3,"geometry":{"type":"Polygon","coordinates":[[[119.06558776400004,26.448749121000048],[119.06546181700003,26.448747380000043],[119.06533624000008,26.448738524000078],[119.06521152800008,26.448722587000077],[119.06508817400004,26.448699633000047],[119.06496666400005,26.448669751000068],[119.06484747900004,26.448633060000077],[119.06473108900002,26.448589705000074],[119.06461795200005,26.448539857000071],[119.06450851600005,26.44848371300003],[119.06440321200012,26.448421493000069],[119.06430245600006,26.448353444000077],[119.06420664600012,26.448279835000051],[119.06411615900004,26.448200955000061],[119.06403135300002,26.448117116000049],[119.06395256300004,26.448028649000037],[119.06388010000001,26.44793590300003],[119.06381424800009,26.447839245000068],[119.06375526900001,26.447739055000056],[119.06370339600005,26.447635729000069],[119.0636588320001,26.447529675000055],[119.06362175300001,26.447421311000028],[119.06359230700002,26.447311065000065],[119.06357060800008,26.447199373000046],[119.06355674400004,26.447086674000047],[119.06355076800003,26.44697341400007],[119.06355270400002,26.446860040000047],[119.06356254400009,26.446746999000027],[119.06358025000009,26.446634737000068],[119.06360575100007,26.446523698000078],[119.06363894700007,26.446414319000041],[119.06367970800011,26.44630703200005],[119.06372787100008,26.446202261000053],[119.06378324700006,26.446100419000061],[119.06384561800007,26.446001908000028],[119.06391473600002,26.445907117000047],[119.06399033000002,26.445816419000039],[119.06407210200007,26.445730174000062],[119.06415972700006,26.445648720000065],[119.06425286100011,26.445572380000044],[119.06435113600003,26.445501455000056],[119.06445416400004,26.445436225000037],[119.06456153900001,26.445376947000057],[119.0646728370001,26.445323854000037],[119.06478761800008,26.445277158000067],[119.06490542900008,26.445237042000031],[119.0650258070001,26.445203663000029],[119.06514827400008,26.445177155000067],[119.0652723500001,26.445157621000078],[119.06539754200003,26.445145139000033],[119.06552335900005,26.445139758000039],[119.06564930200011,26.445141499000044],[119.06577487600009,26.445150356000056],[119.06589958400002,26.445166292000067],[119.0660229340001,26.445189246000041],[119.06614444000002,26.44521912700003],[119.06626362200006,26.445255817000032],[119.06638000900011,26.445299171000045],[119.06649314300012,26.445349018000059],[119.06660257700003,26.445405161000053],[119.06670787900009,26.445467379000036],[119.06680863400004,26.445535426000049],[119.06690444300011,26.445609034000029],[119.06699493000008,26.445687912000039],[119.06707973500011,26.445771749000073],[119.06715852600007,26.445860215000039],[119.06723099100009,26.445952959000067],[119.06729684400011,26.446049615000049],[119.06735582500005,26.446149804000072],[119.06740770100009,26.446253128000023],[119.06745226800001,26.446359181000048],[119.06748934900008,26.446467544000029],[119.06751879900003,26.44657778800007],[119.06754050100005,26.446689480000032],[119.06755436900005,26.446802178000041],[119.06756034900002,26.44691543700003],[119.0675584170001,26.447028811000052],[119.0675485810001,26.447141853000062],[119.06753087900006,26.447254115000078],[119.06750538100005,26.447365155000057],[119.06747218800001,26.447474534000037],[119.06743143200003,26.447581822000075],[119.06738327100004,26.447686594000061],[119.06732789800003,26.447788437000042],[119.06726552900011,26.447886950000054],[119.06719641200004,26.447981743000071],[119.06712082000001,26.448072442000068],[119.06703904900007,26.448158689000024],[119.06695142400008,26.448240144000067],[119.06685829000003,26.448316486000067],[119.06676001400001,26.448387413000034],[119.06665698500001,26.448452645000032],[119.06654960900005,26.448511925000048],[119.06643830900009,26.448565018000068],[119.06632352600002,26.448611716000073],[119.06620571200006,26.448651834000032],[119.06608533100007,26.448685213000033],[119.06596286000001,26.448711723000031],[119.06583878100002,26.448731257000077],[119.06571358500003,26.448743740000054],[119.06558776400004,26.448749121000048]]]},"properties":{"OBJECTID":3,"Bld_Cnt":1,"Vill_Name":"广坪村","Haz_ID":2,"Buffer_m":200,"Haz_Name":"广坪村芋垄滑坡","Haz_Type":"滑坡","Haz_Level":"中型","Shape_Length":0.011975641793320484,"Shape_Area":1.1361762867539758e-05}},{"type":"Feature","id":4,"geometry":{"type":"Polygon","coordinates":[[[119.05142085000011,26.432082481000066],[119.05129492000003,26.432080727000027],[119.05116936100001,26.432071857000039],[119.05104466900002,26.432055907000063],[119.05092133500011,26.432032939000067],[119.05079984600002,26.432003044000055],[119.05068068200001,26.431966340000031],[119.05056431300011,26.431922972000052],[119.05045119800002,26.431873111000073],[119.05034178500011,26.431816954000055],[119.05023650300006,26.43175472300004],[119.05013577000011,26.431686662000061],[119.05003998300003,26.431613042000038],[119.04994951900005,26.43153415200004],[119.04986473600002,26.431450303000076],[119.04978596900003,26.431361827000046],[119.04971352700011,26.431269072000077],[119.04964769800006,26.43117240600003],[119.0495887400001,26.431072209000035],[119.04953688700004,26.430968876000065],[119.04949234300011,26.430862816000058],[119.04945528400003,26.430754447000027],[119.04942585700007,26.430644198000039],[119.04940417600005,26.430532502000062],[119.04939032800007,26.430419801000028],[119.04938436800001,26.430306539000071],[119.04938631900006,26.430193164000059],[119.0493961730001,26.430080123000039],[119.04941389100009,26.429967862000069],[119.04943940400005,26.429856824000069],[119.04947261000007,26.429747448000057],[119.04951337900002,26.429640164000034],[119.04956155000002,26.429535398000041],[119.04961693200005,26.429433560000064],[119.04967930700002,26.429335055000024],[119.04974842900003,26.429240270000037],[119.04982402400003,26.429149580000058],[119.04990579600008,26.429063343000053],[119.04999342000008,26.428981898000075],[119.05008655200004,26.428905567000072],[119.05018482300011,26.428834652000035],[119.05028784500007,26.428769432000024],[119.05039521300012,26.428710165000041],[119.05050650300007,26.428657084000065],[119.05062127400004,26.428610400000025],[119.05073907500002,26.428570296000032],[119.05085944000007,26.428536930000064],[119.05098189500006,26.428510435000078],[119.05110595600001,26.428490914000065],[119.0512311330001,26.428478446000042],[119.05135693300008,26.428473078000025],[119.05148285900009,26.428474833000053],[119.05160841400004,26.428483702000051],[119.05173310300006,26.428499653000074],[119.05185643300001,26.428522620000024],[119.05197791800003,26.428552514000046],[119.05209707900008,26.428589217000024],[119.05221344500001,26.42863258400007],[119.05232655700001,26.42868244400006],[119.05243596900004,26.428738599000042],[119.05254124800001,26.428800829000068],[119.05264198000009,26.428868888000068],[119.05273776600006,26.428942507000045],[119.05282822900006,26.429021396000053],[119.05291301300008,26.429105243000038],[119.05299178100006,26.429193717000032],[119.05306422300009,26.429286470000079],[119.05313005400001,26.429383134000034],[119.05318901400005,26.429483330000039],[119.05324086900009,26.42958666100003],[119.05328541600011,26.429692720000048],[119.05332247800004,26.429801087000044],[119.05335190900007,26.429911336000032],[119.05337359300006,26.430023031000076],[119.05338744500011,26.430135732000053],[119.05339340900002,26.430248993000077],[119.05339146200004,26.430362368000033],[119.05338161200007,26.430475409000053],[119.05336389700005,26.430587670000023],[119.05333838900003,26.430698708000023],[119.0533051860001,26.430808085000024],[119.05326442000012,26.430915370000037],[119.05321625300007,26.431020138000065],[119.05316087300002,26.431121976000043],[119.05309850000003,26.431220483000061],[119.05302938000011,26.431315269000038],[119.0529537860001,26.431405961000053],[119.05287201500005,26.431492200000037],[119.05278439100005,26.43157364700005],[119.05269126000007,26.431649979000042],[119.05259298800001,26.431720896000058],[119.05248996400007,26.431786118000048],[119.05238259500004,26.431845386000077],[119.05227130300011,26.431898468000043],[119.05215652900006,26.431945154000061],[119.05203872600009,26.431985260000033],[119.05191835700009,26.432018627000048],[119.05179589900001,26.432045123000023],[119.05167183500009,26.432064644000036],[119.05154665400005,26.432077113000048],[119.05142085000011,26.432082481000066]]]},"properties":{"OBJECTID":4,"Bld_Cnt":7,"Vill_Name":"汶合村","Haz_ID":3,"Buffer_m":200,"Haz_Name":"汶合村良地滑坡","Haz_Type":"滑坡","Haz_Level":"中型","Shape_Length":0.01197480972367175,"Shape_Area":1.1360314632519086e-05}},{"type":"Feature","id":5,"geometry":{"type":"Polygon","coordinates":[[[119.0339205890001,26.440138049000041],[119.03379464900001,26.440136280000047],[119.03366908200007,26.440127395000047],[119.03354438200006,26.440111430000059],[119.03342104100011,26.440088447000051],[119.03329954700007,26.440058537000027],[119.0331803790001,26.440021819000037],[119.03306400800011,26.439978437000036],[119.03295089200003,26.439928562000034],[119.03284147700003,26.439872392000041],[119.03273619700008,26.439810148000049],[119.0326354660001,26.439742075000026],[119.03253968200011,26.439668442000027],[119.03244922300007,26.439589541000032],[119.0323644450001,26.439505681000071],[119.03228568500003,26.439417195000033],[119.03221325100003,26.439324431000045],[119.03214743100011,26.439227756000037],[119.03208848300005,26.43912755100007],[119.0320366410001,26.439024212000049],[119.03199210900004,26.438918146000049],[119.03195506300005,26.43880977200007],[119.03192564900007,26.438699518000078],[119.03190398300001,26.43858781800003],[119.03189015100008,26.438475115000074],[119.03188420700008,26.438361852000071],[119.03188617400008,26.438248476000069],[119.03189604600004,26.438135435000049],[119.03191378200006,26.438023176000058],[119.03193931300007,26.437912140000037],[119.03197253700012,26.437802767000051],[119.03201332500009,26.437695487000042],[119.03206151500001,26.437590725000064],[119.03211691600006,26.437488894000069],[119.03217931100005,26.437390395000023],[119.03224845200009,26.437295618000064],[119.0323240670001,26.437204936000057],[119.03240585700007,26.437118707000025],[119.0324935000001,26.437037272000055],[119.0325866500001,26.436960952000049],[119.03268493900009,26.436890048000066],[119.03278798000008,26.436824840000043],[119.03289536500006,26.436765585000046],[119.03300667000008,26.436712517000046],[119.0331214580001,26.436665846000039],[119.03323927400004,26.436625756000069],[119.03335965300005,26.436592404000066],[119.03348212100002,26.436565923000046],[119.03360619500006,26.436546417000045],[119.03373138400002,26.436533963000045],[119.03385719400001,26.436528610000039],[119.03398313000002,26.436530380000079],[119.03410869300001,26.436539265000079],[119.03423339000005,26.436555230000067],[119.03435672600006,26.436578212000029],[119.03447821700001,26.436608121000063],[119.03459738100003,26.436644838000063],[119.03471375000004,26.436688219000075],[119.03482686400002,26.436738093000031],[119.03493627600005,26.436794262000035],[119.03504155400003,26.436856505000037],[119.03514228400002,26.436924576000024],[119.03523806700002,26.436998207000045],[119.03532852600006,26.437077106000061],[119.03541330300004,26.437160964000043],[119.03549206500008,26.437249448000046],[119.03556450000008,26.437342210000054],[119.03563032200009,26.437438884000073],[119.03568927100002,26.437539087000061],[119.03574111500006,26.437642425000035],[119.03578565000009,26.437748490000047],[119.03582269900005,26.437856863000036],[119.03585211600011,26.437967116000038],[119.03587378600002,26.43807881400005],[119.03588762200002,26.438191518000053],[119.0358935700001,26.438304780000067],[119.03589160700005,26.438418156000068],[119.03588173900005,26.438531197000032],[119.0358640070001,26.438643457000069],[119.03583848000005,26.438754493000033],[119.0358052580001,26.438863867000066],[119.03576447400008,26.438971147000075],[119.03571628700001,26.439075910000042],[119.03566088900004,26.439177742000027],[119.03559849600003,26.439276242000062],[119.03552935700009,26.439371021000056],[119.03545374300006,26.439461705000042],[119.03537195400008,26.439547935000064],[119.03528431100005,26.43962937200007],[119.03519116100006,26.439705694000054],[119.03509287100007,26.439776600000073],[119.03498983000009,26.439841810000075],[119.03488244300001,26.439901066000061],[119.03477113600002,26.43995413500005],[119.03465634600002,26.440000808000036],[119.03453852700011,26.440040900000042],[119.03441814400003,26.440074253000034],[119.03429567300009,26.440100735000044],[119.03417159600008,26.440120241000045],[119.03404640300005,26.440132696000035],[119.0339205890001,26.440138049000041]]]},"properties":{"OBJECTID":5,"Bld_Cnt":0,"Vill_Name":"汶合乡","Haz_ID":4,"Buffer_m":200,"Haz_Name":"汶合村墓头崩塌","Haz_Type":"崩塌","Haz_Level":"小型","Shape_Length":0.011975358244016597,"Shape_Area":1.1361292306173671e-05}},{"type":"Feature","id":6,"geometry":{"type":"Polygon","coordinates":[[[119.10614397100005,26.465971300000035],[119.1060180070001,26.465969596000036],[119.10589241000002,26.465960777000078],[119.10576767700002,26.465944877000027],[119.10564429900001,26.46592195900007],[119.10552276300007,26.465892114000042],[119.10540354900002,26.465855459000068],[119.1052871280001,26.465812139000036],[119.10517395900001,26.465762325000071],[119.10506448800004,26.465706214000079],[119.10495914800003,26.465644027000053],[119.10485835500003,26.465576009000074],[119.10476250600004,26.465502429000026],[119.10467197900005,26.465423577000024],[119.10458713200001,26.465339765000067],[119.10450830000002,26.465251324000064],[119.10443579300011,26.465158601000041],[119.10436989900006,26.465061964000029],[119.10431087600011,26.464961794000033],[119.10425895800006,26.464858486000026],[119.10421435000001,26.464752447000023],[119.10417722800003,26.464644097000075],[119.10414773800005,26.464533862000053],[119.10412599600011,26.464422179000053],[119.10411208900007,26.464309487000037],[119.10410607100005,26.464196231000074],[119.10410796700012,26.46408285900003],[119.10411776700005,26.463969818000066],[119.1041354350001,26.463857553000025],[119.10416089900002,26.463746509000032],[119.10419406000005,26.463637123000069],[119.10423478700011,26.463529827000059],[119.10428291800008,26.463425044000076],[119.10433826500002,26.463323188000061],[119.10440060800011,26.463224661000027],[119.10446970100008,26.463129851000076],[119.10454527200011,26.463039134000041],[119.10462702200005,26.462952866000023],[119.1047146300001,26.462871389000043],[119.1048077480001,26.462795023000069],[119.10490601000004,26.462724071000025],[119.10500902800004,26.462658812000029],[119.1051163950001,26.462599504000025],[119.10522768800001,26.462546380000049],[119.10534246600002,26.462499652000076],[119.10546027900011,26.462459502000058],[119.10558065900011,26.462426089000076],[119.10570313300002,26.462399545000039],[119.10582721700007,26.462379976000022],[119.1059524210001,26.462367457000028],[119.10607825200009,26.462362039000027],[119.10620421200008,26.462363743000026],[119.10632980500009,26.462372563000031],[119.10645453500001,26.462388462000035],[119.10657790900007,26.462411380000049],[119.10669944100005,26.462441224000031],[119.10681865200002,26.462477878000072],[119.10693507000008,26.462521197000058],[119.10704823700007,26.462571010000033],[119.10715770500008,26.462627120000036],[119.1072630430001,26.462689306000073],[119.10736383500011,26.462757322000073],[119.10745968300012,26.462830900000029],[119.10755021000011,26.462909750000051],[119.10763505700004,26.462993560000029],[119.10771388900002,26.463082000000043],[119.10778639700004,26.46317472100003],[119.10785229300006,26.463271356000064],[119.10791131800011,26.463371525000071],[119.10796323800002,26.463474832000031],[119.10800784900005,26.463580869000054],[119.10804497400011,26.46368921800007],[119.10807446800004,26.463799452000046],[119.10809621300007,26.463911134000057],[119.10811012400006,26.464023826000073],[119.10811614600004,26.464137081000047],[119.10811425400004,26.464250453000034],[119.10810445800007,26.464363494000054],[119.10808679400009,26.464475759000038],[119.10806133300002,26.464586804000078],[119.10802817600006,26.464696190000041],[119.10798745200009,26.46480348700004],[119.10793932400009,26.46490827100007],[119.10788398000011,26.465010129000063],[119.10782163900001,26.46510865700003],[119.10775254800001,26.465203468000027],[119.10767697800009,26.46529418700004],[119.10759522900003,26.465380456000048],[119.10750762200007,26.465461935000064],[119.10741450300009,26.465538303000073],[119.10731624000005,26.46560925700004],[119.10721322200004,26.465674517000025],[119.10710585300001,26.465733827000065],[119.1069945590001,26.46578695200003],[119.10687977700002,26.465833683000028],[119.10676196200006,26.465873834000035],[119.1066415790001,26.465907248000065],[119.10651910100012,26.465933792000044],[119.1063950140001,26.46595336300004],[119.10626980600011,26.465965882000035],[119.10614397100005,26.465971300000035]]]},"properties":{"OBJECTID":6,"Bld_Cnt":10,"Vill_Name":"石坑村","Haz_ID":5,"Buffer_m":200,"Haz_Name":"石坑村溪源滑坡","Haz_Type":"滑坡","Haz_Level":"中型","Shape_Length":0.011976342700032347,"Shape_Area":1.1362957540314958e-05}},{"type":"Feature","id":7,"geometry":{"type":"Polygon","coordinates":[[[119.05392096900005,26.489304684000047],[119.05379497700005,26.489302936000058],[119.05366935600011,26.489294072000064],[119.05354460000001,26.489278127000034],[119.05342120400007,26.489255165000031],[119.05329965400006,26.48922527600007],[119.05318042900001,26.489188578000039],[119.05306400000006,26.489145216000054],[119.05295082700002,26.489095361000068],[119.05284135600004,26.489039209000055],[119.05273601900001,26.488976983000043],[119.05263523200006,26.488908928000058],[119.05253939300007,26.488835313000038],[119.05244888000004,26.488756427000055],[119.05236405100004,26.488672583000039],[119.05228523900007,26.488584112000069],[119.05221275700001,26.488491361000058],[119.05214688900003,26.488394699000025],[119.05208789700009,26.488294505000056],[119.05203601200003,26.488191176000043],[119.05199144000005,26.488085119000061],[119.05195435700011,26.487976753000055],[119.05192490800005,26.487866505000056],[119.05190321100008,26.487754811000059],[119.05188935000001,26.48764211200006],[119.05188338000005,26.487528852000025],[119.05188532500006,26.48741547700007],[119.05189517800011,26.487302437000039],[119.05191289800007,26.48719017600007],[119.05193841700009,26.48707913800007],[119.0519716340001,26.486969761000069],[119.05201241600003,26.486862477000045],[119.05206060500007,26.486757709000074],[119.0521160080001,26.48665587000005],[119.05217840900002,26.486557363000031],[119.05224755900008,26.486462576000065],[119.05232318700007,26.486371883000061],[119.05240499400009,26.486285642000041],[119.05249265700002,26.486204194000038],[119.05258583000011,26.486127859000078],[119.05268414600005,26.486056940000026],[119.05278721600007,26.485991716000058],[119.05289463300005,26.48593244500006],[119.05300597400003,26.485879359000023],[119.0531208000001,26.485832670000036],[119.05323865600008,26.485792561000039],[119.05335907900007,26.485759190000067],[119.05348159300001,26.485732689000031],[119.05360571400001,26.485713163000071],[119.05373095200002,26.485700689000055],[119.05385681400003,26.485695315000044],[119.05398280200006,26.485697064000078],[119.05410842000003,26.485705928000073],[119.05423317100008,26.485721872000056],[119.05435656300006,26.485744834000059],[119.0544781100001,26.485774722000031],[119.05459733200007,26.485811419000072],[119.05471375800005,26.485854780000068],[119.05482692900011,26.485904634000065],[119.05493639700001,26.485960784000042],[119.05504173200006,26.486023009000064],[119.05514251800003,26.486091062000071],[119.05523835600002,26.486164676000044],[119.05532886800006,26.486243560000048],[119.05541369800005,26.486327402000029],[119.05549251000002,26.486415872000066],[119.05556499400006,26.486508621000041],[119.05563086300003,26.486605282000028],[119.05568985700006,26.486705474000075],[119.0557417440001,26.486808801000052],[119.05578631900005,26.486914857000045],[119.05582340500007,26.487023222000062],[119.0558528570001,26.487133468000025],[119.05587455900002,26.487245161000033],[119.05588842300006,26.487357860000031],[119.05589439700009,26.487471120000066],[119.05589245600004,26.487584494000032],[119.05588260700006,26.487697535000052],[119.05586489000007,26.487809796000079],[119.05583937500012,26.487920834000079],[119.05580616200007,26.488030212000069],[119.05576538300011,26.488137497000025],[119.05571719700004,26.488242266000043],[119.05566179600009,26.488344106000056],[119.05559939800003,26.488442615000054],[119.05553025000006,26.488537404000056],[119.05545462300006,26.488628098000049],[119.05537281700003,26.488714341000048],[119.0552851540001,26.48879579100003],[119.05519198100001,26.488872127000036],[119.05509366500007,26.488943047000078],[119.05499059400006,26.489008273000024],[119.0548831750001,26.489067546000058],[119.05477183200003,26.489120633000027],[119.05465700400009,26.48916732400005],[119.05453914400005,26.489207435000026],[119.05441871900007,26.489240807000044],[119.05429620200005,26.48926730900007],[119.05417207700009,26.48928683500003],[119.05404683500001,26.489299310000035],[119.05392096900005,26.489304684000047]]]},"properties":{"OBJECTID":7,"Bld_Cnt":7,"Vill_Name":"曹地村","Haz_ID":6,"Buffer_m":200,"Haz_Name":"曹地村部滑坡","Haz_Type":"滑坡","Haz_Level":"中型","Shape_Length":0.011977950153009703,"Shape_Area":1.1365824120176041e-05}},{"type":"Feature","id":8,"geometry":{"type":"Polygon","coordinates":[[[119.01558712100007,26.54791582200005],[119.01546106300009,26.547914044000038],[119.01533537800003,26.54790514900003],[119.01521056200011,26.547889175000023],[119.01508710700011,26.547866183000053],[119.01496550200011,26.547836264000068],[119.01484622500004,26.54779953700006],[119.01472974700005,26.54775614700003],[119.01461652900002,26.547706264000055],[119.01450701700003,26.547650086000033],[119.01440164300004,26.547587834000069],[119.0143008230001,26.547519754000064],[119.01420495600007,26.547446114000024],[119.01411441900007,26.547367206000047],[119.01402956900006,26.547283341000025],[119.01395074200002,26.54719484900005],[119.01387824900007,26.547102081000048],[119.01381237500004,26.547005401000035],[119.01375338200012,26.546905192000054],[119.01370150000002,26.546801849000076],[119.01365693600007,26.546695781000039],[119.01361986500001,26.546587404000036],[119.01359043400009,26.546477148000065],[119.01356875800002,26.546365448000074],[119.01355492300002,26.546252744000071],[119.01354898400007,26.546139481000068],[119.01355096400005,26.546026106000056],[119.01356085500004,26.545913067000072],[119.01357861800011,26.54580080900007],[119.0136041830001,26.545689776000074],[119.01363745000003,26.545580405000067],[119.01367828600007,26.545473130000062],[119.01372653100009,26.545368372000041],[119.01378199400006,26.545266545000061],[119.01384445600002,26.545168052000065],[119.01391367100007,26.545073280000054],[119.01398936600003,26.54498260400004],[119.01407124100001,26.544896382000047],[119.0141589750001,26.54481495400006],[119.01425222000012,26.544738641000038],[119.01435060800009,26.544667745000027],[119.01445375100002,26.544602545000032],[119.01456124300012,26.544543298000065],[119.0146726590001,26.544490239000027],[119.01478755900007,26.544443577000038],[119.01490548900006,26.54440349500004],[119.01502598600007,26.544370153000045],[119.01514857200004,26.544343681000043],[119.01527276400009,26.54432418500005],[119.01539807200004,26.544311740000069],[119.01552400200001,26.544306397000071],[119.01565005600003,26.544308176000072],[119.01577573700001,26.544317070000034],[119.01590054900009,26.54433304500003],[119.01602400000002,26.544356036000067],[119.01614560200005,26.544385954000063],[119.01626487600004,26.544422680000025],[119.01638135000007,26.544466069000066],[119.01649456600001,26.544515951000051],[119.01660407600002,26.544572128000027],[119.01670944800003,26.544634378000069],[119.01681026600011,26.544702457000028],[119.01690613300002,26.544776095000032],[119.01699667000003,26.54485500100003],[119.01708152000003,26.544938864000073],[119.01716034700007,26.545027354000069],[119.01723284100001,26.545120121000025],[119.01729871700002,26.545216799000059],[119.01735771200003,26.545317006000062],[119.01740959600011,26.54542034800005],[119.01745416300002,26.54552641500004],[119.01749123700006,26.545634790000065],[119.01752067200005,26.545745045000047],[119.01754235100009,26.545856745000037],[119.01755619000005,26.545969448000051],[119.01756213300007,26.546082711000054],[119.01756015700005,26.546196086000066],[119.01755027000002,26.54630912500005],[119.01753251100001,26.546421383000052],[119.01750694900011,26.546532417000037],[119.01747368600002,26.546641788000045],[119.01743285400005,26.546749064000039],[119.01738461200011,26.546853823000049],[119.01732915100001,26.546955651000076],[119.01726669100003,26.54705414600005],[119.01719747800007,26.547148919000051],[119.01712178500009,26.547239597000043],[119.01703991000011,26.547325820000026],[119.01695217700001,26.547407250000049],[119.0168589320001,26.54748356500005],[119.01676054300003,26.54755446300004],[119.01665739800001,26.54761966500007],[119.01654990500003,26.547678913000027],[119.01643848700007,26.547731974000044],[119.01632358500001,26.547778637000079],[119.01620565100006,26.547818720000066],[119.01608515200007,26.54785206400004],[119.01596256300002,26.547878536000042],[119.01583836700001,26.54789803400007],[119.01571305500011,26.547910479000052],[119.01558712100007,26.54791582200005]]]},"properties":{"OBJECTID":8,"Bld_Cnt":9,"Vill_Name":"马厝村","Haz_ID":7,"Buffer_m":200,"Haz_Name":"马厝村马守良宅前滑坡","Haz_Type":"滑坡","Haz_Level":"小型","Shape_Length":0.011981421730720419,"Shape_Area":1.1371948972820116e-05}},{"type":"Feature","id":9,"geometry":{"type":"Polygon","coordinates":[[[119.01725379700008,26.54013804300007],[119.01712774700002,26.540136265000058],[119.01700207100009,26.540127372000029],[119.01687726300008,26.540111398000079],[119.01675381600012,26.540088407000042],[119.01663221900003,26.540058489000046],[119.01651295000011,26.540021763000027],[119.01639648000003,26.539978374000043],[119.01628326900004,26.539928492000058],[119.01617376400009,26.539872314000036],[119.01606839600004,26.539810063000061],[119.01596758300002,26.539741984000045],[119.01587172100005,26.539668345000052],[119.01578118900011,26.539589438000064],[119.01569634500004,26.539505573000042],[119.01561752200007,26.539417082000057],[119.01554503300008,26.539324314000055],[119.01547916300001,26.539227635000032],[119.01542017200006,26.53912742600005],[119.01536829400004,26.539024084000062],[119.01532373200007,26.538918016000025],[119.01528666200011,26.538809640000068],[119.01525723200007,26.53869938400004],[119.01523555600011,26.538587684000049],[119.0152217210001,26.538474980000046],[119.01521578100005,26.538361717000043],[119.01521776000004,26.538248342000031],[119.01522764900005,26.538135302000057],[119.01524541000003,26.538023044000056],[119.01527097200005,26.53791201100006],[119.01530423500003,26.537802640000052],[119.0153450680001,26.537695364000058],[119.01539330800006,26.537590606000037],[119.01544876700007,26.537488779000057],[119.01551122400008,26.537390285000072],[119.01558043300008,26.537295513000061],[119.01565612200011,26.537204836000058],[119.01573799100004,26.537118614000065],[119.01582571800009,26.537037185000031],[119.01591895500007,26.536960871000076],[119.01601733600012,26.536889974000076],[119.01612047200001,26.536824773000035],[119.01622795600008,26.536765526000067],[119.01633936300004,26.53671246600004],[119.0164542550001,26.536665803000062],[119.01657217700006,26.536625720000075],[119.01669266500005,26.536592377000034],[119.01681524200001,26.536565904000042],[119.01693942600002,26.53654640700006],[119.01706472500007,26.536533961000032],[119.01719064600002,26.536528617000045],[119.01731669200001,26.536530395000057],[119.01744236400009,26.536539288000029],[119.01756716800003,26.536555261000046],[119.01769061100003,26.536578252000027],[119.01781220500004,26.536608169000033],[119.01793147100011,26.536644894000062],[119.01804793800011,26.536688283000046],[119.01816114600001,26.536738163000052],[119.0182706490001,26.536794339000039],[119.01837601500006,26.536856589000024],[119.01847682700009,26.536924667000051],[119.01857268800006,26.536998304000065],[119.01866321900002,26.537077209000074],[119.01874806400008,26.53716107200006],[119.01882688700005,26.537249561000067],[119.01889937700003,26.537342328000022],[119.01896524900008,26.537439005000067],[119.01902424200011,26.53753921200007],[119.0190761230001,26.537642553000069],[119.01912068700005,26.537748620000059],[119.0191577600001,26.537856995000027],[119.0191871940001,26.537967250000065],[119.01920887300003,26.538078949000067],[119.0192227120001,26.538191652000023],[119.01922865600011,26.538304915000026],[119.01922668100008,26.538418290000038],[119.01921679600002,26.538531329000023],[119.01919903900011,26.53864358800007],[119.01917348000006,26.538754621000066],[119.01914022100004,26.538863993000064],[119.01909939100005,26.538971270000047],[119.01905115400007,26.539076029000057],[119.01899569800003,26.539177857000027],[119.01893324300011,26.539276353000048],[119.01886403600008,26.539371126000049],[119.01878834800004,26.539461804000041],[119.01870648000011,26.539548029000059],[119.01861875400004,26.539629459000025],[119.01852551600007,26.539705775000073],[119.01842713500002,26.539776674000052],[119.01832399800003,26.539841876000025],[119.01821651200009,26.539901125000029],[119.01810510300004,26.539954187000035],[119.01799020900012,26.540000852000048],[119.01787228400008,26.540040935000036],[119.01775179300012,26.540074280000056],[119.01762921200009,26.540100753000047],[119.0175050250001,26.540120252000065],[119.0173797220001,26.540132698000036],[119.01725379700008,26.54013804300007]]]},"properties":{"OBJECTID":9,"Bld_Cnt":19,"Vill_Name":"马厝村","Haz_ID":8,"Buffer_m":200,"Haz_Name":"下村陈可冬等宅后滑坡","Haz_Type":"滑坡","Haz_Level":"中型","Shape_Length":0.011980981161544668,"Shape_Area":1.1371174430499753e-05}},{"type":"Feature","id":10,"geometry":{"type":"Polygon","coordinates":[[[119.0350318080001,26.505971371000044],[119.03490579600009,26.505969607000054],[119.03478015700011,26.505960727000058],[119.03465538500006,26.505944767000074],[119.03453197300007,26.505921790000059],[119.03441040900009,26.50589188500004],[119.03429117100006,26.505855172000054],[119.03417473100001,26.505811795000056],[119.03406154800007,26.505761926000048],[119.03395206800008,26.505705760000069],[119.0338467250001,26.505643521000025],[119.03374593300009,26.505575453000063],[119.03365009100003,26.505501825000067],[119.03355957600002,26.50542292800003],[119.03347474600002,26.505339072000027],[119.03339593600003,26.50525059000006],[119.03332345700005,26.50515783000003],[119.03325759400002,26.505061159000036],[119.03319860800002,26.504960957000037],[119.0331467310001,26.504857621000042],[119.03310216900002,26.504751558000066],[119.03306509600009,26.504643186000067],[119.03303566000011,26.504532934000054],[119.03301397600001,26.504421237000031],[119.03300013000012,26.504308535000064],[119.03299417700009,26.50419527300005],[119.03299614000002,26.504081898000038],[119.03300601100011,26.503968858000064],[119.03302375200008,26.503856599000073],[119.0330492920001,26.503745563000052],[119.03308253000012,26.503636189000076],[119.03312333600002,26.503528909000067],[119.03317154700005,26.503424146000043],[119.03322697500005,26.503322314000059],[119.03328940000006,26.503223813000034],[119.03335857600007,26.50312903400004],[119.03343422900002,26.503038350000054],[119.0335160620001,26.502952119000042],[119.0336037510001,26.502870681000047],[119.03369695000004,26.502794358000074],[119.03379529200004,26.502723450000076],[119.03389838700002,26.502658239000027],[119.03400583000007,26.502598980000073],[119.03411719700011,26.502545908000059],[119.03423204700005,26.502499233000037],[119.0343499280001,26.502459138000063],[119.03447037500007,26.502425782000046],[119.03459291100012,26.502399296000078],[119.03471705400011,26.502379785000073],[119.03484231400012,26.502367326000069],[119.03496819500003,26.502361968000059],[119.03509420300009,26.502363733000038],[119.0352198380001,26.502372612000045],[119.03534460600008,26.502388572000029],[119.03546801400012,26.502411549000044],[119.03558957600001,26.502441453000074],[119.03570881000007,26.50247816500007],[119.03582524700005,26.502521541000078],[119.03593842800001,26.502571409000041],[119.03604790500003,26.502627573000041],[119.03615324600003,26.502689811000039],[119.03625403700005,26.502757878000068],[119.03634987800001,26.502831504000028],[119.03644039200003,26.502910399000029],[119.03652522200002,26.502994253000054],[119.03660403300012,26.503082733000042],[119.03667651400008,26.503175491000036],[119.0367423780001,26.503272161000041],[119.03680136600008,26.503372361000061],[119.03685324500009,26.503475696000066],[119.03689781000003,26.503581758000053],[119.03693488600004,26.503690128000073],[119.03696432600009,26.50380037900004],[119.03698601300005,26.503912076000063],[119.03699986300001,26.50402477800003],[119.0370058200001,26.504138039000054],[119.03700386100002,26.504251414000066],[119.03699399400011,26.50436445400004],[119.03697625700011,26.504476713000031],[119.03695072100004,26.504587749000052],[119.03691748600011,26.504697124000074],[119.03687668400005,26.504804405000073],[119.03682847500011,26.50490916900003],[119.03677305000008,26.50501100300005],[119.03671062700005,26.505109504000075],[119.03664145300002,26.505204285000048],[119.03656580100005,26.505294971000069],[119.03648396900007,26.505381204000059],[119.03639628000008,26.505462643000044],[119.03630308100003,26.505538968000053],[119.03620473900003,26.50560987800003],[119.03610164200006,26.505675091000057],[119.03599419800003,26.505734351000058],[119.03588282900012,26.505787425000051],[119.0357679760001,26.505834102000051],[119.03565009300007,26.505874198000072],[119.03552964300002,26.505907555000078],[119.03540710300001,26.505934042000035],[119.03528295700005,26.50595355400003],[119.03515769300009,26.505966013000034],[119.0350318080001,26.505971371000044]]]},"properties":{"OBJECTID":10,"Bld_Cnt":32,"Vill_Name":"溪坪村","Haz_ID":9,"Buffer_m":200,"Haz_Name":"溪坪村冯义红等宅后滑坡","Haz_Type":"滑坡","Haz_Level":"中型","Shape_Length":0.011978984634169586,"Shape_Area":1.1367655623731747e-05}},{"type":"Feature","id":11,"geometry":{"type":"Polygon","coordinates":[[[119.05558771100004,26.521804674000066],[119.05546168300009,26.521802929000046],[119.05533602600008,26.521794069000066],[119.05521123500012,26.521778128000051],[119.0550878040001,26.521755169000073],[119.05496621800012,26.52172528400007],[119.0548469580001,26.521688589000064],[119.05473049500006,26.521645231000036],[119.05461728800003,26.521595379000075],[119.05450778500006,26.521539231000077],[119.05440241600002,26.521477008000033],[119.05430159900004,26.521408956000073],[119.05420573100002,26.521335344000079],[119.05411519000006,26.521256461000064],[119.05403033300001,26.521172620000073],[119.05395149600008,26.521084151000025],[119.05387899000004,26.520991403000039],[119.05381310100006,26.520894743000042],[119.05375408900011,26.520794552000041],[119.05370218600001,26.520691224000075],[119.05365759800009,26.520585169000071],[119.05362050000008,26.520476805000044],[119.05359104000001,26.520366559000024],[119.05356933200005,26.520254866000073],[119.05355546300007,26.520142167000074],[119.05354948800004,26.520028908000029],[119.05355143000008,26.519915534000063],[119.05356128100004,26.519802494000032],[119.0535790030001,26.519690233000063],[119.05360452500008,26.519579195000063],[119.05363774700004,26.519469818000061],[119.05367853700011,26.519362533000049],[119.05372673600004,26.519257764000031],[119.05378215100006,26.519155924000074],[119.05384456600007,26.519057415000077],[119.05391373200007,26.518962627000064],[119.0539893780001,26.518871932000025],[119.05407120500001,26.518785690000072],[119.05415889000005,26.518704239000044],[119.05425208700001,26.518627903000038],[119.05435042700003,26.518556981000074],[119.05445352400011,26.51849175500007],[119.05456096900002,26.518432481000048],[119.05467234000002,26.518379393000032],[119.05478719600001,26.51833270000003],[119.05490508500009,26.518292588000065],[119.05502554000009,26.518259214000068],[119.05514808700002,26.518232710000063],[119.05527224200011,26.518213180000032],[119.0553975150001,26.518200702000058],[119.05552341200007,26.518195325000079],[119.05564943600007,26.518197071000031],[119.05577508900001,26.518205931000068],[119.05589987600001,26.518221872000026],[119.05602330400006,26.518244830000071],[119.05614488600008,26.518274714000029],[119.05626414200003,26.518311408000045],[119.05638060300009,26.518354766000073],[119.05649380700004,26.518404616000055],[119.05660330800004,26.518460763000064],[119.0567086750001,26.518522984000072],[119.05680949100008,26.518591034000053],[119.05690535800011,26.518664645000058],[119.05699589900007,26.518743526000037],[119.05708075500002,26.51882736500005],[119.05715959300005,26.518915833000051],[119.05723210000008,26.519008579000058],[119.05729799100004,26.519105237000076],[119.05735700500009,26.519205427000031],[119.05740891000005,26.519308753000075],[119.05745350100005,26.519414807000032],[119.05749060200003,26.51952317000007],[119.05752006600005,26.519633415000044],[119.0575417770001,26.519745107000062],[119.05755565000004,26.519857805000072],[119.05756162900002,26.51997106400006],[119.05755969100005,26.520084438000026],[119.05754984400005,26.520197478000057],[119.05753212600007,26.520309739000027],[119.05750660800004,26.520420777000027],[119.05747338900005,26.520530155000074],[119.05743260200006,26.520637441000076],[119.05738440700009,26.520742211000027],[119.05732899400004,26.520844052000029],[119.05726658100002,26.520942562000073],[119.05719741700011,26.521037352000064],[119.05712177200007,26.521128049000026],[119.05703994600003,26.521214293000071],[119.05695226100011,26.521295745000032],[119.05685906500003,26.521372083000074],[119.05676072300002,26.521443006000027],[119.05665762600006,26.521508235000056],[119.05655017900006,26.521567511000057],[119.05643880600007,26.521620600000062],[119.05632394700001,26.521667294000054],[119.05620605600006,26.521707408000054],[119.0560855980001,26.521740783000041],[119.05596304700009,26.521767288000035],[119.05583888900003,26.521786818000066],[119.05571361200009,26.52179929700003],[119.05558771100004,26.521804674000066]]]},"properties":{"OBJECTID":11,"Bld_Cnt":40,"Vill_Name":"廷坪村","Haz_ID":10,"Buffer_m":200,"Haz_Name":"廷坪村李维针等宅后滑坡","Haz_Type":"滑坡","Haz_Level":"中型","Shape_Length":0.011979736674112489,"Shape_Area":1.1368957782475989e-05}},{"type":"Feature","id":12,"geometry":{"type":"Polygon","coordinates":[[[119.06419898600006,26.543471329000056],[119.06407293500001,26.543469593000054],[119.06394725400003,26.543460741000047],[119.06382243900009,26.54344480900005],[119.06369898300011,26.543421860000024],[119.06357737200005,26.543391983000049],[119.06345808700007,26.543355298000051],[119.06334159900007,26.543311948000053],[119.06322836700008,26.543262104000064],[119.06311883800004,26.543205965000027],[119.06301344500002,26.54314375000007],[119.06291260300009,26.543075706000025],[119.0628167110001,26.54300210100007],[119.06272614600005,26.542923225000038],[119.06264126700012,26.54283939000004],[119.06256240800008,26.542750928000032],[119.06248988000004,26.54265818600004],[119.06242397000005,26.542561531000047],[119.06236493800009,26.54246134400006],[119.06231301700006,26.54235802200003],[119.0622684110001,26.542251971000042],[119.06223129700004,26.54214360900005],[119.06220182100003,26.542033366000055],[119.06218010000009,26.541921676000072],[119.06216621800002,26.541808979000052],[119.06216023200011,26.541695721000053],[119.06216216400003,26.541582348000077],[119.06217200700007,26.541469308000046],[119.06218972200008,26.541357047000076],[119.06221523900001,26.541246007000041],[119.06224845800011,26.54113662900005],[119.06228924600009,26.541029341000069],[119.06233744400004,26.540924570000072],[119.06239286100003,26.540822727000034],[119.06245527800002,26.540724214000079],[119.06252444900008,26.540629422000052],[119.06260010100004,26.540538722000065],[119.0626819360001,26.540452474000062],[119.06276962900006,26.540371019000077],[119.06286283600002,26.54029467600003],[119.06296118900002,26.540223748000074],[119.06306429800009,26.540158514000041],[119.06317175800007,26.540099233000035],[119.06328314500001,26.540046137000047],[119.06339801800004,26.539999437000063],[119.06351592500005,26.539959317000068],[119.06363639900007,26.539925934000053],[119.06375896600002,26.53989942100003],[119.06388314200001,26.539879883000026],[119.06400843800009,26.539867397000023],[119.06413435700006,26.539862011000025],[119.06426040400004,26.539863747000027],[119.06438608100007,26.539872598000045],[119.06451089200004,26.539888530000042],[119.06463434500006,26.539911479000068],[119.06475595200004,26.539941355000053],[119.06487523400006,26.539978040000051],[119.06499171900009,26.54002138900006],[119.06510494800011,26.54007123100007],[119.06521447500006,26.540127369000061],[119.0653198660001,26.540189582000039],[119.06542070700004,26.540257625000038],[119.06551659800004,26.54033122800007],[119.0656071630001,26.540410102000067],[119.06569204200002,26.540493935000029],[119.06577090200005,26.540582396000048],[119.06584343000009,26.540675136000061],[119.06590934200005,26.540771789000075],[119.06596837600011,26.540871974000027],[119.0660203000001,26.540975295000067],[119.06606490800004,26.541081345000066],[119.06610202500008,26.541189705000079],[119.06613150500004,26.541299947000027],[119.06615323000005,26.541411637000067],[119.0661671150001,26.541524333000041],[119.06617310500008,26.54163759100004],[119.06617117700011,26.541750964000073],[119.06616133800003,26.541864004000047],[119.0661436260001,26.541976265000073],[119.06611811300002,26.542087305000052],[119.0660848980001,26.542196685000079],[119.06604411300009,26.54230397200007],[119.06599591800011,26.542408745000046],[119.06594050400008,26.542510590000063],[119.06587808900008,26.542609103000075],[119.06580892000011,26.54270389800007],[119.06573326900002,26.542794599000047],[119.06565143600005,26.542880848000038],[119.06556374200011,26.542962306000049],[119.06547053500003,26.543038650000028],[119.06537218200003,26.543109580000078],[119.0652690710001,26.543174815000043],[119.06516161000002,26.543234098000028],[119.06505022100009,26.543287196000051],[119.06493534600008,26.543333897000025],[119.06481743600011,26.543374019000055],[119.06469695900012,26.54340740300006],[119.0645743880001,26.543433916000026],[119.06445020800004,26.543453455000076],[119.06432490900011,26.543465943000058],[119.06419898600006,26.543471329000056]]]},"properties":{"OBJECTID":12,"Bld_Cnt":15,"Vill_Name":"西坑村","Haz_ID":11,"Buffer_m":200,"Haz_Name":"西坑村肖家满宅后滑坡","Haz_Type":"滑坡","Haz_Level":"中型","Shape_Length":0.011980884488773144,"Shape_Area":1.1370964362310022e-05}},{"type":"Feature","id":13,"geometry":{"type":"Polygon","coordinates":[[[119.06169893900005,26.537915773000066],[119.06157289400005,26.537914035000028],[119.06144721900012,26.537905181000042],[119.06132241100011,26.537889246000077],[119.06119896000007,26.537866294000025],[119.06107735600006,26.537836415000072],[119.06095807800011,26.537799727000049],[119.06084159600005,26.537756374000026],[119.0607283710001,26.537706528000058],[119.06061884900009,26.537650386000053],[119.06051346200002,26.53758816900006],[119.06041262600002,26.537520123000036],[119.06031674000008,26.537446516000045],[119.06022618200006,26.537367638000035],[119.06014130900007,26.537283802000047],[119.06006245600008,26.537195337000071],[119.0599899340001,26.537102594000032],[119.05992402900006,26.53700593700006],[119.05986500200004,26.536905749000027],[119.05981308600008,26.536802425000076],[119.05976848500006,26.536696373000041],[119.05973137600006,26.536588011000049],[119.05970190400001,26.536477767000065],[119.05968018700003,26.536366076000036],[119.05966630900002,26.536253379000073],[119.05966032600008,26.536140120000027],[119.05966226100008,26.536026747000051],[119.05967210600011,26.535913707000077],[119.0596898230001,26.53580144600005],[119.05971534200012,26.535690407000061],[119.05974856100011,26.535581028000024],[119.05978935100006,26.535473742000079],[119.05983754900001,26.535368971000025],[119.05989296600001,26.535267129000033],[119.05995538200011,26.535168618000057],[119.06002455200007,26.53507382600003],[119.06010020300005,26.534983128000079],[119.06018203600001,26.534896882000055],[119.0602697270001,26.534815427000069],[119.06036293200009,26.534739087000048],[119.06046128200001,26.534668160000024],[119.0605643880001,26.534602929000073],[119.06067184500012,26.534543649000057],[119.06078322700012,26.534490556000037],[119.06089809600007,26.534443858000031],[119.06101599800002,26.534403740000073],[119.06113646800009,26.534370360000025],[119.06125903000009,26.534343850000027],[119.06138320100001,26.53432431400006],[119.06150849000005,26.534311830000036],[119.06163440400007,26.534306446000073],[119.06176044500012,26.534308185000043],[119.0618861160001,26.53431703900003],[119.06201092100002,26.534332973000062],[119.06213436700011,26.534355925000057],[119.06225596800004,26.534385803000077],[119.06237524300002,26.534422491000043],[119.06249172200012,26.534465842000031],[119.0626049440001,26.534515687000066],[119.06271446400001,26.534571827000036],[119.06281984900011,26.53463404300004],[119.06292068300002,26.534702088000074],[119.06301656900007,26.534775693000029],[119.06310712700008,26.534854569000061],[119.06319200000007,26.534938404000059],[119.06327085400005,26.535026866000067],[119.06334337700002,26.535119608000059],[119.06340928300006,26.535216263000052],[119.06346831100007,26.535316449000049],[119.06352023000011,26.535419772000068],[119.06356483400009,26.535525823000057],[119.06360194600006,26.53563418400006],[119.06363142200007,26.535744427000054],[119.06365314300001,26.535856117000037],[119.0636670240001,26.535968814000057],[119.06367301100011,26.536082072000056],[119.06367108000006,26.536195445000033],[119.06366123900011,26.536308485000063],[119.06364352600008,26.536420746000033],[119.06361801100002,26.536531786000069],[119.06358479500011,26.536641165000049],[119.06354400900011,26.53674845200004],[119.06349581300003,26.536853224000026],[119.06344039900011,26.536955067000065],[119.0633779850001,26.537053580000077],[119.06330881600002,26.537148373000036],[119.06323316700002,26.537239073000023],[119.06315133500004,26.537325321000026],[119.06306364400007,26.537406777000058],[119.06297043900008,26.537483119000058],[119.06287208900005,26.537554047000071],[119.06276898200008,26.537619281000048],[119.06266152300009,26.537678562000053],[119.06255013900011,26.537731657000052],[119.06243526800006,26.537778356000047],[119.06231736300003,26.537818476000041],[119.06219689000011,26.537851857000078],[119.06207432400004,26.537878368000065],[119.06195015000003,26.537897905000023],[119.06182485700003,26.537910389000047],[119.06169893900005,26.537915773000066]]]},"properties":{"OBJECTID":13,"Bld_Cnt":7,"Vill_Name":"西坑村","Haz_ID":12,"Buffer_m":200,"Haz_Name":"西坑村陈学明宅后滑坡","Haz_Type":"滑坡","Haz_Level":"中型","Shape_Length":0.011980591598153617,"Shape_Area":1.1370452706909552e-05}},{"type":"Feature","id":14,"geometry":{"type":"Polygon","coordinates":[[[119.02197615800003,26.589026915000034],[119.02185005500007,26.589025144000061],[119.02172432500004,26.589016258000072],[119.02159946300003,26.589000292000037],[119.02147596300006,26.58897730800004],[119.02135431200008,26.588947398000073],[119.02123499000004,26.588910679000037],[119.02111846800005,26.588867297000036],[119.02100520500005,26.588817421000044],[119.02089565000006,26.588761251000051],[119.02079023400006,26.58869900600007],[119.0206893730001,26.588630933000047],[119.02059346500005,26.588557301000037],[119.0205028900001,26.588478399000053],[119.02041800300003,26.588394540000024],[119.02033914100002,26.588306055000032],[119.02026661500008,26.588213292000034],[119.02020071000004,26.588116617000026],[119.02014168700009,26.588016413000048],[119.02008977900005,26.587913074000028],[119.02004519100001,26.587807009000073],[119.02000809800006,26.587698637000074],[119.01997864800001,26.587588384000071],[119.01995695500011,26.58747668500007],[119.01994310600003,26.587363983000046],[119.01993715600008,26.587250722000078],[119.01993912700004,26.587137347000066],[119.0199490120001,26.587024308000025],[119.01996677300008,26.586912050000024],[119.01999233800007,26.586801017000028],[119.02002560800008,26.58669164500003],[119.02006645000006,26.586584368000047],[119.0201147030001,26.586479607000058],[119.02017017700007,26.586377778000042],[119.0202326540001,26.586279281000031],[119.02030188600008,26.586184506000052],[119.02037760000007,26.586093826000024],[119.02045949800004,26.586007599000027],[119.0205472560001,26.585926166000036],[119.02064052700007,26.585849848000066],[119.02073894500006,26.585778946000062],[119.02084212000011,26.585713740000074],[119.02094964500009,26.585654487000056],[119.02106109500005,26.585601421000035],[119.02117603200008,26.585554751000075],[119.02129400100011,26.585514662000037],[119.02141453800004,26.585481313000059],[119.02153716500004,26.585454833000028],[119.0216613990001,26.585435329000063],[119.02178675100004,26.585422876000052],[119.02191272500011,26.585417525000025],[119.02203882400011,26.585419295000065],[119.02216455000007,26.585428181000054],[119.02228940800001,26.585444147000032],[119.02241290400002,26.58546713000004],[119.02253455200002,26.585497040000064],[119.0226538710001,26.585533758000054],[119.02277039000001,26.585577140000055],[119.02288365000004,26.585627013000078],[119.02299320300006,26.585683183000071],[119.02309861700007,26.585745426000074],[119.02319947700005,26.585813497000061],[119.02329538400011,26.585887128000024],[119.02338595900005,26.58596602800003],[119.02347084500002,26.586049885000023],[119.02354970800002,26.586138369000025],[119.02362223500006,26.586231130000044],[119.02368814200008,26.586327803000074],[119.02374716600002,26.586428006000062],[119.02379907700004,26.586531343000047],[119.02384366800004,26.586637406000023],[119.02388076400007,26.586745778000079],[119.02391021800008,26.586856030000035],[119.02393191400006,26.586967727000058],[119.0239457670001,26.587080429000025],[119.02395172100012,26.587193690000049],[119.02394975400011,26.587307064000072],[119.02393987200003,26.587420103000056],[119.02392211600011,26.587532361000058],[119.02389655400009,26.587643396000033],[119.02386328900002,26.58775276800003],[119.02382245000001,26.58786004600006],[119.02377419900006,26.587964808000038],[119.02371872800006,26.588066638000043],[119.02365625300001,26.588165136000043],[119.02358702300012,26.588259913000059],[119.02351131000012,26.588350595000065],[119.02342941300003,26.588436823000052],[119.02334165600007,26.588518258000079],[119.02324838400011,26.588594578000027],[119.02314996600001,26.588665482000067],[119.02304679000008,26.588730690000034],[119.02293926400012,26.588789944000041],[119.02282781100007,26.588843012000041],[119.02271287100007,26.588889683000048],[119.02259489900007,26.588929773000075],[119.02247436000005,26.588963124000031],[119.02235172900009,26.588989605000052],[119.02222749100008,26.589009110000063],[119.02210213600006,26.589021563000074],[119.02197615800003,26.589026915000034]]]},"properties":{"OBJECTID":14,"Bld_Cnt":33,"Vill_Name":"西山村","Haz_ID":13,"Buffer_m":200,"Haz_Name":"西山村郑设化宅后滑坡","Haz_Type":"滑坡","Haz_Level":"小型","Shape_Length":0.011983664050686214,"Shape_Area":1.1375877871093673e-05}},{"type":"Feature","id":15,"geometry":{"type":"Polygon","coordinates":[[[119.09894362400007,26.469408347000069],[119.09881765600005,26.469406637000077],[119.09869205500001,26.469397811000078],[119.09856731900004,26.469381905000034],[119.09844393800006,26.469358981000028],[119.09832240000003,26.469329130000062],[119.09820318400011,26.469292469000038],[119.09808676200009,26.469249144000059],[119.09797359200002,26.469199324000044],[119.09786412100004,26.469143207000059],[119.09775878100004,26.469081015000029],[119.09765798900003,26.469012992000046],[119.09756214100003,26.46893940700005],[119.09747161600001,26.468860551000034],[119.09738677100006,26.468776734000073],[119.09730794100005,26.468688289000056],[119.0972354380001,26.468595562000075],[119.09716954700002,26.468498922000038],[119.09711052800003,26.468398748000027],[119.09705861500004,26.468295437000052],[119.09701401200005,26.468189396000071],[119.09697689500001,26.468081043000041],[119.0969474100001,26.467970807000029],[119.09692567500008,26.46785912200005],[119.09691177400009,26.467746429000044],[119.09690576300011,26.467633173000024],[119.09690766500012,26.467519800000048],[119.09691747300008,26.467406759000028],[119.09693514800006,26.467294495000033],[119.09696062000012,26.467183452000029],[119.09699378800008,26.467074067000055],[119.09703452300005,26.466966772000035],[119.09708266200005,26.466861992000076],[119.09713801600003,26.466760138000041],[119.09720036700003,26.466661614000031],[119.09726946900003,26.466566807000049],[119.09734504800008,26.46647609300004],[119.09742680600004,26.466389829000036],[119.09751442100003,26.46630835600007],[119.09760754700005,26.466231995000044],[119.09770581700002,26.466161047000071],[119.09780884200006,26.466095793000079],[119.09791621600004,26.466036490000079],[119.09802751600012,26.46598337100005],[119.09814230100005,26.465936648000024],[119.09826012000008,26.465896504000057],[119.09838050600001,26.465863097000067],[119.09850298600009,26.465836559000024],[119.09862707500008,26.465816995000068],[119.09875228500005,26.465804483000056],[119.09887812000011,26.465799071000049],[119.09900408400006,26.465800781000041],[119.09912968000003,26.46580960700004],[119.09925441300004,26.465825513000027],[119.09937779100005,26.465848436000044],[119.09949932500001,26.465878287000066],[119.09961853700008,26.465914947000044],[119.09973495700001,26.465958271000034],[119.09984812400012,26.466008090000059],[119.09995759300011,26.466064205000066],[119.10006293100002,26.46612639600005],[119.10016372200005,26.466194417000054],[119.10025956900006,26.466268000000071],[119.10035009400008,26.46634685500004],[119.10043493800003,26.466430670000022],[119.10051376900003,26.46651911400005],[119.10058627300009,26.466611838000063],[119.10065216600003,26.466708477000054],[119.10071118600001,26.466808649000029],[119.10076310200009,26.466911959000072],[119.10080770800005,26.467017999000063],[119.10084482800005,26.467126350000058],[119.10087431600004,26.467236585000023],[119.10089605500002,26.46734826900007],[119.10090996000008,26.467460962000075],[119.10091597500002,26.467574218000038],[119.10091407700008,26.467687590000025],[119.10090427300008,26.467800631000046],[119.10088660200006,26.46791289500004],[119.10086113400007,26.468023939000034],[119.10082796800009,26.468133325000053],[119.10078723700008,26.468240620000074],[119.10073910100004,26.468345402000068],[119.10068374900004,26.468447257000037],[119.10062140000002,26.468545783000025],[119.10055230100011,26.468640590000064],[119.10047672300004,26.468731306000052],[119.10039496600007,26.468817572000034],[119.10030735100008,26.468899047000036],[119.10021422500006,26.468975410000041],[119.1001159540001,26.46904635900006],[119.10001292800007,26.469111615000031],[119.09990555200011,26.469170920000067],[119.09979425100005,26.469224040000029],[119.09967946300003,26.469270765000033],[119.09956164200003,26.469310911000036],[119.09944125200002,26.469344319000072],[119.09931876900009,26.469370857000058],[119.09919467600002,26.46939042200006],[119.09906946300009,26.469402935000062],[119.09894362400007,26.469408347000069]]]},"properties":{"OBJECTID":15,"Bld_Cnt":7,"Vill_Name":"石坑村","Haz_ID":14,"Buffer_m":200,"Haz_Name":"石坑村村委房前滑坡","Haz_Type":"滑坡","Haz_Level":"中型","Shape_Length":0.011976576888273537,"Shape_Area":1.1363374843553091e-05}}]}