{"type":"FeatureCollection","features":[{"type":"Feature","id":1,"geometry":{"type":"Point","coordinates":[119.09416667000005,26.549166670000034]},"properties":{"OBJECTID":1,"县":"闽侯县","Vill_Name":"文山岗村","Haz_ID":0,"Haz_Name":"文山岗村部崩塌","Haz_Type":"崩塌","Haz_Level":"小型"}},{"type":"Feature","id":2,"geometry":{"type":"Point","coordinates":[119.08388889000003,26.480277780000051]},"properties":{"OBJECTID":2,"县":"闽侯县","Vill_Name":"流源村","Haz_ID":1,"Haz_Name":"流源村部崩塌","Haz_Type":"崩塌","Haz_Level":"小型"}},{"type":"Feature","id":3,"geometry":{"type":"Point","coordinates":[119.06555556000001,26.446944440000038]},"properties":{"OBJECTID":3,"县":"闽侯县","Vill_Name":"广坪村","Haz_ID":2,"Haz_Name":"广坪村芋垄滑坡","Haz_Type":"滑坡","Haz_Level":"中型"}},{"type":"Feature","id":4,"geometry":{"type":"Point","coordinates":[119.05138889000011,26.43027778000004]},"properties":{"OBJECTID":4,"县":"闽侯县","Vill_Name":"汶合村","Haz_ID":3,"Haz_Name":"汶合村良地滑坡","Haz_Type":"滑坡","Haz_Level":"中型"}},{"type":"Feature","id":5,"geometry":{"type":"Point","coordinates":[119.03388889000007,26.438333330000034]},"properties":{"OBJECTID":5,"县":"闽侯县","Vill_Name":"汶合乡","Haz_ID":4,"Haz_Name":"汶合村墓头崩塌","Haz_Type":"崩塌","Haz_Level":"小型"}},{"type":"Feature","id":6,"geometry":{"type":"Point","coordinates":[119.10611111000003,26.464166670000054]},"properties":{"OBJECTID":6,"县":"闽侯县","Vill_Name":"石坑村","Haz_ID":5,"Haz_Name":"石坑村溪源滑坡","Haz_Type":"滑坡","Haz_Level":"中型"}},{"type":"Feature","id":7,"geometry":{"type":"Point","coordinates":[119.05388889000005,26.487500000000068]},"properties":{"OBJECTID":7,"县":"闽侯县","Vill_Name":"曹地村","Haz_ID":6,"Haz_Name":"曹地村部滑坡","Haz_Type":"滑坡","Haz_Level":"中型"}},{"type":"Feature","id":8,"geometry":{"type":"Point","coordinates":[119.01555556000005,26.546111110000027]},"properties":{"OBJECTID":8,"县":"闽侯县","Vill_Name":"马厝村","Haz_ID":7,"Haz_Name":"马厝村马守良宅前滑坡","Haz_Type":"滑坡","Haz_Level":"小型"}},{"type":"Feature","id":9,"geometry":{"type":"Point","coordinates":[119.01722222000001,26.538333330000057]},"properties":{"OBJECTID":9,"县":"闽侯县","Vill_Name":"马厝村","Haz_ID":8,"Haz_Name":"下村陈可冬等宅后滑坡","Haz_Type":"滑坡","Haz_Level":"中型"}},{"type":"Feature","id":10,"geometry":{"type":"Point","coordinates":[119.03500000000008,26.504166670000075]},"properties":{"OBJECTID":10,"县":"闽侯县","Vill_Name":"溪坪村","Haz_ID":9,"Haz_Name":"溪坪村冯义红等宅后滑坡","Haz_Type":"滑坡","Haz_Level":"中型"}},{"type":"Feature","id":11,"geometry":{"type":"Point","coordinates":[119.05555556000002,26.520000000000039]},"properties":{"OBJECTID":11,"县":"闽侯县","Vill_Name":"廷坪村","Haz_ID":10,"Haz_Name":"廷坪村李维针等宅后滑坡","Haz_Type":"滑坡","Haz_Level":"中型"}},{"type":"Feature","id":12,"geometry":{"type":"Point","coordinates":[119.06416667000008,26.541666670000041]},"properties":{"OBJECTID":12,"县":"闽侯县","Vill_Name":"西坑村","Haz_ID":11,"Haz_Name":"西坑村肖家满宅后滑坡","Haz_Type":"滑坡","Haz_Level":"中型"}},{"type":"Feature","id":13,"geometry":{"type":"Point","coordinates":[119.06166667000002,26.536111110000036]},"properties":{"OBJECTID":13,"县":"闽侯县","Vill_Name":"西坑村","Haz_ID":12,"Haz_Name":"西坑村陈学明宅后滑坡","Haz_Type":"滑坡","Haz_Level":"中型"}},{"type":"Feature","id":14,"geometry":{"type":"Point","coordinates":[119.02194444000008,26.587222220000058]},"properties":{"OBJECTID":14,"县":"闽侯县","Vill_Name":"西山村","Haz_ID":13,"Haz_Name":"西山村郑设化宅后滑坡","Haz_Type":"滑坡","Haz_Level":"小型"}},{"type":"Feature","id":15,"geometry":{"type":"Point","coordinates":[119.09891087000005,26.467603709000059]},"properties":{"OBJECTID":15,"县":"闽侯县","Vill_Name":"石坑村","Haz_ID":14,"Haz_Name":"石坑村村委房前滑坡","Haz_Type":" 滑坡","Haz_Level":"中型"}}]}