{"type":"FeatureCollection","features":[{"type":"Feature","id":1,"geometry":{"type":"Point","coordinates":[119.0630950850001,26.53915936900006]},"properties":{"OBJECTID":1,"NAME":"西坑村村民委员会","Threat_Vil":1,"Vill_Name":"西坑村","Risk_Cls4":3,"Risk_Level":"中高风险区","Exp_Cls4":3,"Exp_Level":"中高暴露区","Cap_Cls4":4,"Cap_Level":"高能力区","Risk_A":0.52057061081900002}},{"type":"Feature","id":2,"geometry":{"type":"Point","coordinates":[119.04081023200001,26.544501127000046]},"properties":{"OBJECTID":2,"NAME":"黄埔村村民委员会","Threat_Vil":0,"Vill_Name":"黄埔村","Risk_Cls4":2,"Risk_Level":"中低风险区","Exp_Cls4":2,"Exp_Level":"中低暴露区","Cap_Cls4":4,"Cap_Level":"高能力区","Risk_A":0.38054943601500002}},{"type":"Feature","id":3,"geometry":{"type":"Point","coordinates":[119.01789825700007,26.544574639000075]},"properties":{"OBJECTID":3,"NAME":"马厝村居民委员会","Threat_Vil":1,"Vill_Name":"马厝村","Risk_Cls4":2,"Risk_Level":"中低风险区","Exp_Cls4":2,"Exp_Level":"中低暴露区","Cap_Cls4":3,"Cap_Level":"中高能力区","Risk_A":0.46046918507399998}},{"type":"Feature","id":4,"geometry":{"type":"Point","coordinates":[119.02112993500009,26.589788965000025]},"properties":{"OBJECTID":4,"NAME":"西山村村民委员会","Threat_Vil":1,"Vill_Name":"西山村","Risk_Cls4":4,"Risk_Level":"高风险区","Exp_Cls4":3,"Exp_Level":"中高暴露区","Cap_Cls4":1,"Cap_Level":"低能力区","Risk_A":0.61217003355900002}},{"type":"Feature","id":5,"geometry":{"type":"Point","coordinates":[119.05011151700012,26.590570127000035]},"properties":{"OBJECTID":5,"NAME":"洪山村村民委员会","Threat_Vil":0,"Vill_Name":"洪山村","Risk_Cls4":4,"Risk_Level":"高风险区","Exp_Cls4":2,"Exp_Level":"中低暴露区","Cap_Cls4":1,"Cap_Level":"低能力区","Risk_A":0.605694973616}},{"type":"Feature","id":6,"geometry":{"type":"Point","coordinates":[119.05552613200007,26.520548201000054]},"properties":{"OBJECTID":6,"NAME":"廷坪村村民委员会","Threat_Vil":1,"Vill_Name":"廷坪村","Risk_Cls4":3,"Risk_Level":"中高风险区","Exp_Cls4":4,"Exp_Level":"高暴露区","Cap_Cls4":4,"Cap_Level":"高能力区","Risk_A":0.51505391014199997}},{"type":"Feature","id":7,"geometry":{"type":"Point","coordinates":[119.07652810600007,26.499148538000043]},"properties":{"OBJECTID":7,"NAME":"石洋村村民委员会","Threat_Vil":0,"Vill_Name":"石洋村","Risk_Cls4":2,"Risk_Level":"中低风险区","Exp_Cls4":3,"Exp_Level":"中高暴露区","Cap_Cls4":3,"Cap_Level":"中高能力区","Risk_A":0.48581748747300002}},{"type":"Feature","id":8,"geometry":{"type":"Point","coordinates":[119.09973776600009,26.469110711000042]},"properties":{"OBJECTID":8,"NAME":"石坑村居民委员会","Threat_Vil":1,"Vill_Name":"石坑村","Risk_Cls4":3,"Risk_Level":"中高风险区","Exp_Cls4":3,"Exp_Level":"中高暴露区","Cap_Cls4":2,"Cap_Level":"中低能力区","Risk_A":0.54341590885400004}},{"type":"Feature","id":9,"geometry":{"type":"Point","coordinates":[119.08737015300005,26.468954211000039]},"properties":{"OBJECTID":9,"NAME":"尾桥村村民居委会","Threat_Vil":0,"Vill_Name":"尾桥村","Risk_Cls4":4,"Risk_Level":"高风险区","Exp_Cls4":4,"Exp_Level":"高暴露区","Cap_Cls4":3,"Cap_Level":"中高能力区","Risk_A":0.60239330508}},{"type":"Feature","id":10,"geometry":{"type":"Point","coordinates":[119.08502568800009,26.478750040000023]},"properties":{"OBJECTID":10,"NAME":"流源村村民居委会","Threat_Vil":1,"Vill_Name":"流源村","Risk_Cls4":3,"Risk_Level":"中高风险区","Exp_Cls4":3,"Exp_Level":"中高暴露区","Cap_Cls4":3,"Cap_Level":"中高能力区","Risk_A":0.54002409430599996}},{"type":"Feature","id":11,"geometry":{"type":"Point","coordinates":[119.06051841600004,26.454545016000054]},"properties":{"OBJECTID":11,"NAME":"广坪村村民委员会","Threat_Vil":1,"Vill_Name":"广坪村","Risk_Cls4":3,"Risk_Level":"中高风险区","Exp_Cls4":3,"Exp_Level":"中高暴露区","Cap_Cls4":3,"Cap_Level":"中高能力区","Risk_A":0.53004499267399996}},{"type":"Feature","id":12,"geometry":{"type":"Point","coordinates":[119.00227665200009,26.471647102000077]},"properties":{"OBJECTID":12,"NAME":"罗桥村村民委员会","Threat_Vil":0,"Vill_Name":"罗桥村","Risk_Cls4":4,"Risk_Level":"高风险区","Exp_Cls4":4,"Exp_Level":"高暴露区","Cap_Cls4":2,"Cap_Level":"中低能力区","Risk_A":0.61996898075399998}},{"type":"Feature","id":13,"geometry":{"type":"Point","coordinates":[119.07843226400007,26.45795251800007]},"properties":{"OBJECTID":13,"NAME":"塘里村村民委员会","Threat_Vil":0,"Vill_Name":"塘里村","Risk_Cls4":4,"Risk_Level":"高风险区","Exp_Cls4":4,"Exp_Level":"高暴露区","Cap_Cls4":2,"Cap_Level":"中低能力区","Risk_A":0.65151416470000001}},{"type":"Feature","id":14,"geometry":{"type":"Point","coordinates":[119.12691910700005,26.479776552000033]},"properties":{"OBJECTID":14,"NAME":"后溪村村民委员会","Threat_Vil":0,"Vill_Name":"后溪村","Risk_Cls4":4,"Risk_Level":"高风险区","Exp_Cls4":3,"Exp_Level":"中高暴露区","Cap_Cls4":1,"Cap_Level":"低能力区","Risk_A":0.60063472418200003}},{"type":"Feature","id":15,"geometry":{"type":"Point","coordinates":[119.08567079200009,26.495433779000052]},"properties":{"OBJECTID":15,"NAME":"石井村村民委员会","Threat_Vil":0,"Vill_Name":"石井村","Risk_Cls4":3,"Risk_Level":"中高风险区","Exp_Cls4":4,"Exp_Level":"高暴露区","Cap_Cls4":3,"Cap_Level":"中高能力区","Risk_A":0.57753204596399998}},{"type":"Feature","id":16,"geometry":{"type":"Point","coordinates":[119.11143901600008,26.526338994000071]},"properties":{"OBJECTID":16,"NAME":"池坑村村民委员会","Threat_Vil":0,"Vill_Name":"池坑村","Risk_Cls4":2,"Risk_Level":"中低风险区","Exp_Cls4":2,"Exp_Level":"中低暴露区","Cap_Cls4":3,"Cap_Level":"中高能力区","Risk_A":0.48391195507399998}},{"type":"Feature","id":17,"geometry":{"type":"Point","coordinates":[119.09463821000008,26.549050453000063]},"properties":{"OBJECTID":17,"NAME":"文山岗村民委员会","Threat_Vil":0,"Vill_Name":"文山岗","Risk_Cls4":0,"Risk_Level":" ","Exp_Cls4":0,"Exp_Level":" ","Cap_Cls4":0,"Cap_Level":" ","Risk_A":0}},{"type":"Feature","id":18,"geometry":{"type":"Point","coordinates":[119.07171909500005,26.559968214000037]},"properties":{"OBJECTID":18,"NAME":"下洋村村民委员会","Threat_Vil":0,"Vill_Name":"下洋村","Risk_Cls4":4,"Risk_Level":"高风险区","Exp_Cls4":3,"Exp_Level":"中高暴露区","Cap_Cls4":1,"Cap_Level":"低能力区","Risk_A":0.61341259240500001}},{"type":"Feature","id":19,"geometry":{"type":"Point","coordinates":[119.0469346860001,26.58063721700006]},"properties":{"OBJECTID":19,"NAME":"岩头村村民委员会","Threat_Vil":0,"Vill_Name":"岩头村","Risk_Cls4":3,"Risk_Level":"中高风险区","Exp_Cls4":2,"Exp_Level":"中低暴露区","Cap_Cls4":2,"Cap_Level":"中低能力区","Risk_A":0.52211587890199995}},{"type":"Feature","id":20,"geometry":{"type":"Point","coordinates":[119.03338636700005,26.504157902000031]},"properties":{"OBJECTID":20,"NAME":"溪坪村村民委员会","Threat_Vil":1,"Vill_Name":"溪坪村","Risk_Cls4":2,"Risk_Level":"中低风险区","Exp_Cls4":3,"Exp_Level":"中高暴露区","Cap_Cls4":4,"Cap_Level":"高能力区","Risk_A":0.47858499882400002}},{"type":"Feature","id":21,"geometry":{"type":"Point","coordinates":[119.03292687700002,26.474789792000024]},"properties":{"OBJECTID":21,"NAME":"蕉溪村村民委员会","Threat_Vil":0,"Vill_Name":"蕉溪村","Risk_Cls4":3,"Risk_Level":"中高风险区","Exp_Cls4":3,"Exp_Level":"中高暴露区","Cap_Cls4":3,"Cap_Level":"中高能力区","Risk_A":0.56426461639199998}},{"type":"Feature","id":22,"geometry":{"type":"Point","coordinates":[119.05575069600002,26.489357651000034]},"properties":{"OBJECTID":22,"NAME":"曹地村村民委员会","Threat_Vil":1,"Vill_Name":"曹地村","Risk_Cls4":3,"Risk_Level":"中高风险区","Exp_Cls4":3,"Exp_Level":"中高暴露区","Cap_Cls4":3,"Cap_Level":"中高能力区","Risk_A":0.51498537642200004}}]}